{"type": "FeatureCollection", "features": [ {"type": "Feature", "properties": {"norad_id": 31441, "name": "FENGYUN 1C DEB", "group": "fengyun-1c-debris", "lat": -26.745615066913313, "lon": -129.82184457817752, "alt_km": 592.5053952863291, "timestamp": "2025-12-26T12:57:39.555156+00:00", "meta": {"OBJECT_NAME": "FENGYUN 1C DEB", "OBJECT_ID": "1999-025BUD", "EPOCH": "2025-12-24T20:24:41.777856", "MEAN_MOTION": 14.76048225, "ECCENTRICITY": 0.01007481, "INCLINATION": 99.3118, "RA_OF_ASC_NODE": 223.4902, "ARG_OF_PERICENTER": 298.4244, "MEAN_ANOMALY": 60.6836, "EPHEMERIS_TYPE": 0, "CLASSIFICATION_TYPE": "U", "NORAD_CAT_ID": 31441, "ELEMENT_SET_NO": 999, "REV_AT_EPOCH": 64269, "BSTAR": 0.0057457348, "MEAN_MOTION_DOT": 0.00043215, "MEAN_MOTION_DDOT": 0}, "tle": {"line1": "1 31441U 99025BUD 25358.85048354  .00043215  00000+0  57457-2 0  9992", "line2": "2 31441  99.3118 223.4902 0100748 298.4244  60.6836 14.76048225642696"}}, "geometry": {"type": "Point", "coordinates": [-129.82184457817752, -26.745615066913313]}}, {"type": "Feature", "properties": {"norad_id": 31442, "name": "FENGYUN 1C DEB", "group": "fengyun-1c-debris", "lat": 56.095951565406835, "lon": 73.42835108857669, "alt_km": 768.2877191464586, "timestamp": "2025-12-26T12:57:39.555166+00:00", "meta": {"OBJECT_NAME": "FENGYUN 1C DEB", "OBJECT_ID": "1999-025BUE", "EPOCH": "2025-12-24T12:08:00.229344", "MEAN_MOTION": 14.33951774, "ECCENTRICITY": 0.00785047, "INCLINATION": 98.5303, "RA_OF_ASC_NODE": 84.326, "ARG_OF_PERICENTER": 337.665, "MEAN_ANOMALY": 22.1123, "EPHEMERIS_TYPE": 0, "CLASSIFICATION_TYPE": "U", "NORAD_CAT_ID": 31442, "ELEMENT_SET_NO": 999, "REV_AT_EPOCH": 97529, "BSTAR": 0.00033349655, "MEAN_MOTION_DOT": 9.19e-06, "MEAN_MOTION_DDOT": 0}, "tle": {"line1": "1 31442U 99025BUE 25358.50555821  .00000919  00000+0  33350-3 0  9998", "line2": "2 31442  98.5303  84.3260 0078504 337.6650  22.1123 14.33951774975298"}}, "geometry": {"type": "Point", "coordinates": [73.42835108857669, 56.095951565406835]}}, {"type": "Feature", "properties": {"norad_id": 31443, "name": "FENGYUN 1C DEB", "group": "fengyun-1c-debris", "lat": 38.75025083173674, "lon": -71.24641461330937, "alt_km": 708.1989442199829, "timestamp": "2025-12-26T12:57:39.555176+00:00", "meta": {"OBJECT_NAME": "FENGYUN 1C DEB", "OBJECT_ID": "1999-025BUF", "EPOCH": "2025-12-25T13:07:42.426912", "MEAN_MOTION": 14.48809364, "ECCENTRICITY": 0.0191122, "INCLINATION": 99.21, "RA_OF_ASC_NODE": 100.1881, "ARG_OF_PERICENTER": 60.1891, "MEAN_ANOMALY": 301.8152, "EPHEMERIS_TYPE": 0, "CLASSIFICATION_TYPE": "U", "NORAD_CAT_ID": 31443, "ELEMENT_SET_NO": 999, "REV_AT_EPOCH": 67127, "BSTAR": 0.001089, "MEAN_MOTION_DOT": 5.132e-05, "MEAN_MOTION_DDOT": 0}, "tle": {"line1": "1 31443U 99025BUF 25359.54701883  .00005132  00000+0  10890-2 0  9990", "line2": "2 31443  99.2100 100.1881 0191122  60.1891 301.8152 14.48809364671278"}}, "geometry": {"type": "Point", "coordinates": [-71.24641461330937, 38.75025083173674]}}, {"type": "Feature", "properties": {"norad_id": 31444, "name": "FENGYUN 1C DEB", "group": "fengyun-1c-debris", "lat": 79.77986414640927, "lon": -116.83203740560748, "alt_km": 627.472976840455, "timestamp": "2025-12-26T12:57:39.555186+00:00", "meta": {"OBJECT_NAME": "FENGYUN 1C DEB", "OBJECT_ID": "1999-025BUG", "EPOCH": "2025-12-22T02:24:16.096320", "MEAN_MOTION": 14.70070692, "ECCENTRICITY": 0.00626396, "INCLINATION": 98.9296, "RA_OF_ASC_NODE": 299.0143, "ARG_OF_PERICENTER": 44.119, "MEAN_ANOMALY": 316.4986, "EPHEMERIS_TYPE": 0, "CLASSIFICATION_TYPE": "U", "NORAD_CAT_ID": 31444, "ELEMENT_SET_NO": 999, "REV_AT_EPOCH": 97626, "BSTAR": 0.0017329246, "MEAN_MOTION_DOT": 0.00010681, "MEAN_MOTION_DDOT": 0}, "tle": {"line1": "1 31444U 99025BUG 25356.10018630  .00010681  00000+0  17329-2 0  9990", "line2": "2 31444  98.9296 299.0143 0062639  44.1190 316.4986 14.70070692976267"}}, "geometry": {"type": "Point", "coordinates": [-116.83203740560748, 79.77986414640927]}}, {"type": "Feature", "properties": {"norad_id": 31447, "name": "FENGYUN 1C DEB", "group": "fengyun-1c-debris", "lat": 3.512780403983816, "lon": 41.560455855388426, "alt_km": 701.3321905196035, "timestamp": "2025-12-26T12:57:39.555195+00:00", "meta": {"OBJECT_NAME": "FENGYUN 1C DEB", "OBJECT_ID": "1999-025BUK", "EPOCH": "2025-12-14T21:01:38.356896", "MEAN_MOTION": 14.2403744, "ECCENTRICITY": 0.02304397, "INCLINATION": 98.9919, "RA_OF_ASC_NODE": 30.1793, "ARG_OF_PERICENTER": 349.1545, "MEAN_ANOMALY": 10.471, "EPHEMERIS_TYPE": 0, "CLASSIFICATION_TYPE": "U", "NORAD_CAT_ID": 31447, "ELEMENT_SET_NO": 999, "REV_AT_EPOCH": 64882, "BSTAR": 0.00018562598, "MEAN_MOTION_DOT": 5.08e-06, "MEAN_MOTION_DDOT": 0}, "tle": {"line1": "1 31447U 99025BUK 25348.87613839  .00000508  00000+0  18563-3 0  9999", "line2": "2 31447  98.9919  30.1793 0230439 349.1545  10.4710 14.24037440648821"}}, "geometry": {"type": "Point", "coordinates": [41.560455855388426, 3.512780403983816]}}, {"type": "Feature", "properties": {"norad_id": 31448, "name": "FENGYUN 1C DEB", "group": "fengyun-1c-debris", "lat": -24.492342719295234, "lon": -172.44753942970547, "alt_km": 772.2430998765822, "timestamp": "2025-12-26T12:57:39.555205+00:00", "meta": {"OBJECT_NAME": "FENGYUN 1C DEB", "OBJECT_ID": "1999-025BUL", "EPOCH": "2025-12-20T18:05:54.538080", "MEAN_MOTION": 14.27837488, "ECCENTRICITY": 0.00593925, "INCLINATION": 98.4998, "RA_OF_ASC_NODE": 5.8293, "ARG_OF_PERICENTER": 180.4564, "MEAN_ANOMALY": 179.6573, "EPHEMERIS_TYPE": 0, "CLASSIFICATION_TYPE": "U", "NORAD_CAT_ID": 31448, "ELEMENT_SET_NO": 999, "REV_AT_EPOCH": 64418, "BSTAR": 0.00043686395, "MEAN_MOTION_DOT": 1.058e-05, "MEAN_MOTION_DDOT": 0}, "tle": {"line1": "1 31448U 99025BUL 25354.75410345  .00001058  00000+0  43686-3 0  9996", "line2": "2 31448  98.4998   5.8293 0059392 180.4564 179.6573 14.27837488644185"}}, "geometry": {"type": "Point", "coordinates": [-172.44753942970547, -24.492342719295234]}}, {"type": "Feature", "properties": {"norad_id": 31449, "name": "FENGYUN 1C DEB", "group": "fengyun-1c-debris", "lat": 60.56458872734444, "lon": -105.62708117207941, "alt_km": 806.5192982346844, "timestamp": "2025-12-26T12:57:39.555215+00:00", "meta": {"OBJECT_NAME": "FENGYUN 1C DEB", "OBJECT_ID": "1999-025BUM", "EPOCH": "2025-12-20T10:40:43.619520", "MEAN_MOTION": 14.33719628, "ECCENTRICITY": 0.01441603, "INCLINATION": 98.5539, "RA_OF_ASC_NODE": 52.876, "ARG_OF_PERICENTER": 245.7554, "MEAN_ANOMALY": 112.8511, "EPHEMERIS_TYPE": 0, "CLASSIFICATION_TYPE": "U", "NORAD_CAT_ID": 31449, "ELEMENT_SET_NO": 999, "REV_AT_EPOCH": 97747, "BSTAR": 0.00016710121, "MEAN_MOTION_DOT": 4.73e-06, "MEAN_MOTION_DDOT": 0}, "tle": {"line1": "1 31449U 99025BUM 25354.44494930  .00000473  00000+0  16710-3 0  9993", "line2": "2 31449  98.5539  52.8760 0144160 245.7554 112.8511 14.33719628977475"}}, "geometry": {"type": "Point", "coordinates": [-105.62708117207941, 60.56458872734444]}}, {"type": "Feature", "properties": {"norad_id": 31451, "name": "FENGYUN 1C DEB", "group": "fengyun-1c-debris", "lat": -24.899276787959266, "lon": 46.43846724393224, "alt_km": 874.2862074883205, "timestamp": "2025-12-26T12:57:39.555225+00:00", "meta": {"OBJECT_NAME": "FENGYUN 1C DEB", "OBJECT_ID": "1999-025BUP", "EPOCH": "2025-12-24T01:46:07.992768", "MEAN_MOTION": 14.13639411, "ECCENTRICITY": 0.00317113, "INCLINATION": 98.7622, "RA_OF_ASC_NODE": 39.9171, "ARG_OF_PERICENTER": 179.5002, "MEAN_ANOMALY": 210.8483, "EPHEMERIS_TYPE": 0, "CLASSIFICATION_TYPE": "U", "NORAD_CAT_ID": 31451, "ELEMENT_SET_NO": 999, "REV_AT_EPOCH": 96170, "BSTAR": 0.00034326728, "MEAN_MOTION_DOT": 6.08e-06, "MEAN_MOTION_DDOT": 0}, "tle": {"line1": "1 31451U 99025BUP 25358.07370362  .00000608  00000+0  34327-3 0  9995", "line2": "2 31451  98.7622  39.9171 0031711 179.5002 210.8483 14.13639411961709"}}, "geometry": {"type": "Point", "coordinates": [46.43846724393224, -24.899276787959266]}}, {"type": "Feature", "properties": {"norad_id": 31452, "name": "FENGYUN 1C DEB", "group": "fengyun-1c-debris", "lat": -50.93124784343062, "lon": -2.1005337308603402, "alt_km": 871.5362737345204, "timestamp": "2025-12-26T12:57:39.555235+00:00", "meta": {"OBJECT_NAME": "FENGYUN 1C DEB", "OBJECT_ID": "1999-025BUQ", "EPOCH": "2025-12-26T04:43:18.177024", "MEAN_MOTION": 14.15187097, "ECCENTRICITY": 0.00411125, "INCLINATION": 98.6599, "RA_OF_ASC_NODE": 346.7453, "ARG_OF_PERICENTER": 90.1678, "MEAN_ANOMALY": 270.4207, "EPHEMERIS_TYPE": 0, "CLASSIFICATION_TYPE": "U", "NORAD_CAT_ID": 31452, "ELEMENT_SET_NO": 999, "REV_AT_EPOCH": 96396, "BSTAR": 0.00037364573, "MEAN_MOTION_DOT": 6.89e-06, "MEAN_MOTION_DDOT": 0}, "tle": {"line1": "1 31452U 99025BUQ 25360.19673816  .00000689  00000+0  37365-3 0  9996", "line2": "2 31452  98.6599 346.7453 0041112  90.1678 270.4207 14.15187097963963"}}, "geometry": {"type": "Point", "coordinates": [-2.1005337308603402, -50.93124784343062]}}, {"type": "Feature", "properties": {"norad_id": 31455, "name": "FENGYUN 1C DEB", "group": "fengyun-1c-debris", "lat": 73.50836577434801, "lon": -161.19195229617858, "alt_km": 849.792846811908, "timestamp": "2025-12-26T12:57:39.555246+00:00", "meta": {"OBJECT_NAME": "FENGYUN 1C DEB", "OBJECT_ID": "1999-025BUT", "EPOCH": "2025-12-26T05:40:42.770496", "MEAN_MOTION": 14.11447967, "ECCENTRICITY": 0.02180763, "INCLINATION": 98.5754, "RA_OF_ASC_NODE": 347.8756, "ARG_OF_PERICENTER": 12.843, "MEAN_ANOMALY": 347.8175, "EPHEMERIS_TYPE": 0, "CLASSIFICATION_TYPE": "U", "NORAD_CAT_ID": 31455, "ELEMENT_SET_NO": 999, "REV_AT_EPOCH": 96294, "BSTAR": 0.00034913184, "MEAN_MOTION_DOT": 7.48e-06, "MEAN_MOTION_DDOT": 0}, "tle": {"line1": "1 31455U 99025BUT 25360.23660614  .00000748  00000+0  34913-3 0  9998", "line2": "2 31455  98.5754 347.8756 0218076  12.8430 347.8175 14.11447967962949"}}, "geometry": {"type": "Point", "coordinates": [-161.19195229617858, 73.50836577434801]}}]}